NORAD_CAT_ID,OBJECT_NAME,OBJECT_TYPE,EPOCH,MEAN_MOTION,ECCENTRICITY,INCLINATION,RA_OF_ASC_NODE,ARG_OF_PERICENTER,MEAN_ANOMALY,BSTAR,MEAN_MOTION_DOT,MEAN_MOTION_DDOT,TLE_LINE0,TLE_LINE1,TLE_LINE2,SEMIMAJOR_AXIS,PERIOD,APOGEE,PERIGEE,DECAYED
52291.0,STARLINK-3773,PAYLOAD,2024-04-17 00:20:56,15.10299005,6.84e-05,53.2171,324.0463,207.6626,152.4331,0.0030786,0.00051076,0.0,0 STARLINK-3773,1 52291U 22041AG  24108.01454687  .00051076  00000-0  30786-2 0  9993,2 52291  53.2171 324.0463 0000684 207.6626 152.4331 15.10299005110080,6913.424,95.345,535.762,534.817,0.0
52291.0,STARLINK-3773,PAYLOAD,2024-04-17 19:24:26,15.1036406,6.84e-05,53.2173,320.4733,216.046,144.0487,0.0022863,0.00037854,0.0,0 STARLINK-3773,1 52291U 22041AG  24108.80863870  .00037854  00000-0  22863-2 0  9993,2 52291  53.2173 320.4733 0000684 216.0460 144.0487 15.10364060111424,6913.226,95.341,535.564,534.618,0.0
52291.0,STARLINK-3773,PAYLOAD,2024-04-18 20:49:01,15.104532,9.06e-05,53.2172,315.7095,221.1652,138.9272,0.0024393,0.00040522,0.0,0 STARLINK-3773,1 52291U 22041AG  24109.86737366  .00040522  00000-0  24393-2 0  9996,2 52291  53.2172 315.7095 0000906 221.1652 138.9272 15.10453200111584,6912.954,95.336,535.445,534.193,0.0
52291.0,STARLINK-3773,PAYLOAD,2024-04-18 23:59:35,15.10464352,9.22e-05,53.2171,315.1141,222.0155,138.0767,0.0024963,0.00041494,0.0,0 STARLINK-3773,1 52291U 22041AG  24109.99971150  .00041494  00000-0  24963-2 0  9993,2 52291  53.2171 315.1141 0000922 222.0155 138.0767 15.10464352110382,6912.92,95.335,535.422,534.147,0.0
52291.0,STARLINK-3773,PAYLOAD,2024-04-19 19:02:57,15.10536853,9.23e-05,53.217,311.5404,229.8152,130.276,0.0029201,0.00048735,0.0,0 STARLINK-3773,1 52291U 22041AG  24110.79371694  .00048735  00000-0  29201-2 0  9995,2 52291  53.2170 311.5404 0000923 229.8152 130.2760 15.10536853110503,6912.699,95.33,535.202,533.926,0.0
52291.0,STARLINK-3773,PAYLOAD,2024-04-20 12:30:58,15.1061114,9.13e-05,53.2168,308.2646,242.2359,117.8542,0.002365,0.00039445,0.0,0 STARLINK-3773,1 52291U 22041AG  24111.52151484  .00039445  00000-0  23650-2 0  9990,2 52291  53.2168 308.2646 0000913 242.2359 117.8542 15.10611140110612,6912.472,95.326,534.968,533.706,0.0
52291.0,STARLINK-3773,PAYLOAD,2024-04-20 20:27:20,15.10639921,9.08e-05,53.2164,306.775,249.753,110.3365,0.002192,0.00036552,0.0,0 STARLINK-3773,1 52291U 22041AG  24111.85232167  .00036552  00000-0  21920-2 0  9998,2 52291  53.2164 306.7750 0000908 249.7530 110.3365 15.10639921111882,6912.384,95.324,534.877,533.622,0.0
52291.0,STARLINK-3773,PAYLOAD,2024-04-21 13:55:18,15.10712941,9.33e-05,53.216,303.498,261.1318,98.9569,0.002757,0.00046206,0.0,0 STARLINK-3773,1 52291U 22041AG  24112.58007319  .00046206  00000-0  27570-2 0  9992,2 52291  53.2160 303.4980 0000933 261.1318  98.9569 15.10712941110775,6912.161,95.319,534.671,533.382,0.0
52291.0,STARLINK-3773,PAYLOAD,2024-04-21 20:16:22,15.10737656,9.54e-05,53.2158,302.3067,263.3524,96.7361,0.0028916,0.00048525,0.0,0 STARLINK-3773,1 52291U 22041AG  24112.84470227  .00048525  00000-0  28916-2 0  9994,2 52291  53.2158 302.3067 0000954 263.3524  96.7361 15.10737656112039,6912.086,95.318,534.61,533.292,0.0
52291.0,STARLINK-3773,PAYLOAD,2024-04-21 21:51:38,15.10743902,9.55e-05,53.2158,302.0089,264.203,95.8855,0.0028991,0.00048661,0.0,0 STARLINK-3773,1 52291U 22041AG  24112.91085884  .00048661  00000-0  28991-2 0  9997,2 52291  53.2158 302.0089 0000955 264.2030  95.8855 15.10743902110827,6912.067,95.317,534.592,533.272,0.0
52291.0,STARLINK-3773,PAYLOAD,2024-04-22 20:05:18,15.1083093,0.0001058,53.2156,297.8385,276.2147,83.8725,0.0026514,0.0004456,0.0,0 STARLINK-3773,1 52291U 22041AG  24113.83702027  .00044560  00000-0  26514-2 0  9997,2 52291  53.2156 297.8385 0001058 276.2147  83.8725 15.10830930110968,6911.802,95.312,534.398,532.935,0.0
52291.0,STARLINK-3773,PAYLOAD,2024-04-23 18:18:54,15.10915667,0.0001172,53.2157,293.668,289.8501,70.2365,0.0024798,0.00041739,0.0,0 STARLINK-3773,1 52291U 22041AG  24114.76312818  .00041739  00000-0  24798-2 0  9992,2 52291  53.2157 293.6680 0001172 289.8501  70.2365 15.10915667112325,6911.543,95.306,534.218,532.598,0.0
52291.0,STARLINK-3773,PAYLOAD,2024-04-23 21:29:24,15.1093294,0.0001195,53.2157,293.0717,288.3516,71.7347,0.0027398,0.00046197,0.0,0 STARLINK-3773,1 52291U 22041AG  24114.89542420  .00046197  00000-0  27398-2 0  9992,2 52291  53.2157 293.0717 0001195 288.3516  71.7347 15.10932940111121,6911.49,95.305,534.181,532.53,0.0
52291.0,STARLINK-3773,PAYLOAD,2024-04-24 11:46:40,15.10990154,0.0001307,53.216,290.3898,295.1653,64.9204,0.0025588,0.00043176,0.0,0 STARLINK-3773,1 52291U 22041AG  24115.49074436  .00043176  00000-0  25588-2 0  9999,2 52291  53.2160 290.3898 0001307 295.1653  64.9204 15.10990154112430,6911.316,95.302,534.084,532.278,0.0
52291.0,STARLINK-3773,PAYLOAD,2024-04-24 16:32:25,15.11009105,0.0001326,53.2161,289.4966,296.0404,64.0452,0.0025523,0.00043088,0.0,0 STARLINK-3773,1 52291U 22041AG  24115.68917918  .00043088  00000-0  25523-2 0  9992,2 52291  53.2161 289.4966 0001326 296.0404  64.0452 15.11009105111243,6911.258,95.301,534.04,532.207,0.0
52291.0,STARLINK-3773,PAYLOAD,2024-04-24 18:07:39,15.11018542,0.0001338,53.2161,289.1983,295.2705,64.8149,0.0027585,0.00046628,0.0,0 STARLINK-3773,1 52291U 22041AG  24115.75532330  .00046628  00000-0  27585-2 0  9994,2 52291  53.2161 289.1983 0001338 295.2705  64.8149 15.11018542112479,6911.229,95.3,534.019,532.17,0.0
52291.0,STARLINK-3773,PAYLOAD,2024-04-25 14:45:51,15.11095785,0.0001373,53.2166,285.3243,293.4346,66.6502,0.0024371,0.00041218,0.0,0 STARLINK-3773,1 52291U 22041AG  24116.61517573  .00041218  00000-0  24371-2 0  9992,2 52291  53.2166 285.3243 0001373 293.4346  66.6502 15.11095785111387,6910.994,95.295,533.808,531.91,0.0
52291.0,STARLINK-3773,PAYLOAD,2024-04-25 21:06:49,15.11126594,0.0001519,53.2164,284.1317,302.1004,57.9841,0.0028711,0.00048704,0.0,0 STARLINK-3773,1 52291U 22041AG  24116.87973660  .00048704  00000-0  28711-2 0  9992,2 52291  53.2164 284.1317 0001519 302.1004  57.9841 15.11126594112647,6910.9,95.293,533.815,531.715,0.0
52291.0,STARLINK-3773,PAYLOAD,2024-04-26 14:34:26,15.11193307,0.0001683,53.2167,280.8539,308.9861,51.0982,0.0027786,0.00047203,0.0,0 STARLINK-3773,1 52291U 22041AG  24117.60725694  .00047203  00000-0  27786-2 0  9990,2 52291  53.2167 280.8539 0001683 308.9861  51.0982 15.11193307111530,6910.697,95.289,533.725,531.399,0.0
52291.0,STARLINK-3773,PAYLOAD,2024-04-26 17:44:55,15.11208472,0.000173,53.2166,280.2582,310.9175,49.1668,0.002946,0.00050106,0.0,0 STARLINK-3773,1 52291U 22041AG  24117.73952954  .00050106  00000-0  29460-2 0  9992,2 52291  53.2166 280.2582 0001730 310.9175  49.1668 15.11208472111556,6910.65,95.288,533.711,531.32,0.0
52291.0,STARLINK-3773,PAYLOAD,2024-04-27 03:16:19,15.11252616,0.000181,53.2167,278.4701,313.2282,46.856,0.0030566,0.00052076,0.0,0 STARLINK-3773,1 52291U 22041AG  24118.13633930  .00052076  00000-0  30566-2 0  9994,2 52291  53.2167 278.4701 0001810 313.2282  46.8560 15.11252616112839,6910.516,95.285,533.632,531.13,0.0
52291.0,STARLINK-3773,PAYLOAD,2024-04-27 14:22:57,15.11291311,0.0001845,53.2168,276.3843,314.9539,45.1305,0.002402,0.0004084,0.0,0 STARLINK-3773,1 52291U 22041AG  24118.59927137  .00040840  00000-0  24020-2 0  9993,2 52291  53.2168 276.3843 0001845 314.9539  45.1305 15.11291311111681,6910.398,95.283,533.538,530.988,0.0
52291.0,STARLINK-3773,PAYLOAD,2024-04-27 17:33:24,15.11304788,0.0001846,53.2169,275.7886,315.3829,44.7015,0.0024634,0.00041913,0.0,0 STARLINK-3773,1 52291U 22041AG  24118.73153514  .00041913  00000-0  24634-2 0  9992,2 52291  53.2169 275.7886 0001846 315.3829  44.7015 15.11304788111709,6910.357,95.282,533.497,530.946,0.0
52291.0,STARLINK-3773,PAYLOAD,2024-04-28 03:04:46,15.11339821,0.0001931,53.2168,274.0007,316.8773,43.2069,0.0024242,0.00041278,0.0,0 STARLINK-3773,1 52291U 22041AG  24119.12832101  .00041278  00000-0  24242-2 0  9991,2 52291  53.2168 274.0007 0001931 316.8773  43.2069 15.11339821112984,6910.25,95.28,533.449,530.781,0.0
52291.0,STARLINK-3773,PAYLOAD,2024-04-28 14:11:22,15.11368823,0.0001963,53.2166,271.9149,317.9091,42.1751,0.0018571,0.00031535,0.0,0 STARLINK-3773,1 52291U 22041AG  24119.59122801  .00031535  00000-0  18571-2 0  9994,2 52291  53.2166 271.9149 0001963 317.9091  42.1751 15.11368823111838,6910.162,95.278,533.383,530.67,0.0
52291.0,STARLINK-3773,PAYLOAD,2024-04-28 17:21:49,15.11377482,0.0001986,53.2167,271.319,318.5561,41.5282,0.001845,0.00031334,0.0,0 STARLINK-3773,1 52291U 22041AG  24119.72348562  .00031334  00000-0  18450-2 0  9996,2 52291  53.2167 271.3190 0001986 318.5561  41.5282 15.11377482111858,6910.135,95.277,533.373,530.628,0.0
52291.0,STARLINK-3773,PAYLOAD,2024-04-29 02:53:09,15.11402872,0.0002054,53.2166,269.5309,320.6512,39.4332,0.0017219,0.00029236,0.0,0 STARLINK-3773,1 52291U 22041AG  24120.12025359  .00029236  00000-0  17219-2 0  9998,2 52291  53.2166 269.5309 0002054 320.6512  39.4332 15.11402872113132,6910.058,95.276,533.342,530.503,0.0
52291.0,STARLINK-3773,PAYLOAD,2024-04-29 09:14:03,15.11415501,0.0002101,53.2164,268.3387,321.0324,39.0518,0.0014789,0.00025063,0.0,0 STARLINK-3773,1 52291U 22041AG  24120.38476236  .00025063  00000-0  14789-2 0  9993,2 52291  53.2164 268.3387 0002101 321.0324  39.0518 15.11415501111955,6910.019,95.275,533.336,530.432,0.0
52291.0,STARLINK-3773,PAYLOAD,2024-04-29 20:20:36,15.11444327,0.0002107,53.2161,266.2529,323.8701,36.215,0.0015625,0.00026523,0.0,0 STARLINK-3773,1 52291U 22041AG  24120.84764561  .00026523  00000-0  15625-2 0  9997,2 52291  53.2161 266.2529 0002107 323.8701  36.2150 15.11444327112020,6909.931,95.273,533.252,530.341,0.0
52291.0,STARLINK-3773,PAYLOAD,2024-04-30 13:48:01,15.11480186,0.000223,53.216,262.9747,326.3561,33.7291,0.0014287,0.00024243,0.0,0 STARLINK-3773,1 52291U 22041AG  24121.57501989  .00024243  00000-0  14287-2 0  9991,2 52291  53.2160 262.9747 0002230 326.3561  33.7291 15.11480186112136,6909.822,95.271,533.228,530.146,0.0
